GOES 1 (SMS-C) [-]      
1 08366U 75100A   22338.37790212 -.00000197  00000+0  00000+0 0  9991
2 08366   7.8668 293.6058 0002890 293.8161 256.2525  1.00245042172120
GOES 2 [-]              
1 10061U 77048A   22338.01418770  .00000037  00000+0  00000+0 0  9998
2 10061   9.4686 305.3209 0011715  21.6664   0.4009  0.99394150 33442
GOES 3 [-]              
1 10953U 78062A   22338.54241455 -.00000028  00000+0  00000+0 0  9998
2 10953   9.8091 309.9260 0001253 190.4913 214.4890  0.99357222115716
GOES 4 [-]              
1 11964U 80074A   22338.57267719  .00000048  00000+0  00000+0 0  9992
2 11964  10.7814 313.7524 0031440  77.2169 322.6637  0.99226701114633
GOES 5 [-]              
1 12472U 81049A   22338.40345814 -.00000287  00000+0  00000+0 0  9991
2 12472  11.6667 325.2376 0001530 239.1919 307.4957  1.00271894109902
GOES 6 [-]              
1 14050U 83041A   22338.42540755 -.00000260  00000+0  00000+0 0  9993
2 14050  12.2495 330.5776 0003263 169.2228  10.3692  1.00256378203075
GOES 7 [-]              
1 17561U 87022A   22338.18352427  .00000032  00000+0  00000+0 0  9992
2 17561  14.0979 347.1698 0003730  63.0163 107.3482  0.99903487114068
GOES 8 [-]              
1 23051U 94022A   22338.15728762  .00000029  00000+0  00000+0 0  9993
2 23051  13.3215  22.9937 0003483  31.7287 321.7540  0.98903099111356
GOES 9 [-]              
1 23581U 95025A   22338.12564677 -.00000019  00000+0  00000+0 0  9995
2 23581  12.8165  23.3832 0005567 127.6931  55.5411  0.98797737100006
GOES 10 [-]             
1 24786U 97019A   22338.02822125 -.00000252  00000+0  00000+0 0  9991
2 24786  11.6125  29.6267 0028196 205.0470 167.8545  0.99125587 93274
GOES 11 [-]             
1 26352U 00022A   22338.54994764 -.00000270  00000+0  00000+0 0  9996
2 26352   9.0441  57.9566 0002675 192.0390 155.2403  0.99044472 39685
GOES 12 [-]             
1 26871U 01031A   22338.51037263 -.00000136  00000+0  00000+0 0  9993
2 26871   9.8228  47.0580 0004192 302.8116  12.2977  0.99135559 77969
EWS-G1 (GOES 13) [+]    
1 29155U 06018A   22338.63862779  .00000048  00000+0  00000+0 0  9993
2 29155   1.0094  93.6962 0006795 147.2509 123.7260  1.00273424 60570
GOES 14 [B]             
1 35491U 09033A   22337.64126157 -.00000087  00000+0  00000+0 0  9990
2 35491   0.1892 261.7425 0018185 321.9342 335.4352  1.00271388 49208
GOES 15 [B]             
1 36411U 10008A   22338.62382517  .00000061  00000+0  00000+0 0  9991
2 36411   0.1440 282.9765 0003186 283.8294 323.3433  1.00280494 46716
GOES 16 [+]             
1 41866U 16071A   22338.37999409 -.00000240  00000+0  00000+0 0  9993
2 41866   0.0586 256.4559 0000832  18.7005 219.6317  1.00272665 22165
GOES 17 [+]             
1 43226U 18022A   22338.54369161  .00000107  00000+0  00000+0 0  9999
2 43226   0.0260 136.1239 0000597 128.6765 226.9559  1.00273657 17487
GOES 18 [+]             
1 51850U 22021A   22336.79858193  .00000101  00000+0  00000+0 0  9992
2 51850   0.0254 142.9864 0001839 104.3997 334.7920  1.00271308  2822
